{
    "links": {
        "self": "http://www.neowsapp.com/rest/v1/neo/54055041?api_key=iIulBulltgU6a56xZRHN4H3l9WmuAYTsLGpBGhQ2"
    },
    "id": "54055041",
    "neo_reference_id": "54055041",
    "name": "(2020 TK1)",
    "designation": "2020 TK1",
    "nasa_jpl_url": "http://ssd.jpl.nasa.gov/sbdb.cgi?sstr=54055041",
    "absolute_magnitude_h": 23.311,
    "estimated_diameter": {
        "kilometers": {
            "estimated_diameter_min": 0.0578568755,
            "estimated_diameter_max": 0.1293719067
        },
        "meters": {
            "estimated_diameter_min": 57.8568755374,
            "estimated_diameter_max": 129.3719066673
        },
        "miles": {
            "estimated_diameter_min": 0.0359505846,
            "estimated_diameter_max": 0.080387951
        },
        "feet": {
            "estimated_diameter_min": 189.819151538,
            "estimated_diameter_max": 424.4485262702
        }
    },
    "is_potentially_hazardous_asteroid": false,
    "close_approach_data": [
        {
            "close_approach_date": "2020-10-30",
            "close_approach_date_full": "2020-Oct-30 00:53",
            "epoch_date_close_approach": 1604019180000,
            "relative_velocity": {
                "kilometers_per_second": "9.5268175215",
                "kilometers_per_hour": "34296.5430773212",
                "miles_per_hour": "21310.5381137944"
            },
            "miss_distance": {
                "astronomical": "0.1267943848",
                "lunar": "49.3230156872",
                "kilometers": "18968169.894040376",
                "miles": "11786274.2353581488"
            },
            "orbiting_body": "Earth"
        },
        {
            "close_approach_date": "2021-02-24",
            "close_approach_date_full": "2021-Feb-24 23:45",
            "epoch_date_close_approach": 1614210300000,
            "relative_velocity": {
                "kilometers_per_second": "6.9049523967",
                "kilometers_per_hour": "24857.8286280042",
                "miles_per_hour": "15445.6880161063"
            },
            "miss_distance": {
                "astronomical": "0.3963705063",
                "lunar": "154.1881269507",
                "kilometers": "59296183.473301581",
                "miles": "36844939.8877445778"
            },
            "orbiting_body": "Earth"
        }
    ],
    "orbital_data": {
        "orbit_id": "5",
        "orbit_determination_date": "2020-10-18 08:06:22",
        "first_observation_date": "2020-10-06",
        "last_observation_date": "2020-10-18",
        "data_arc_in_days": 12,
        "observations_used": 26,
        "orbit_uncertainty": "8",
        "minimum_orbit_intersection": ".00863608",
        "jupiter_tisserand_invariant": "4.460",
        "epoch_osculation": "2459130.5",
        "eccentricity": ".4167468870742217",
        "semi_major_axis": "1.480993328347139",
        "inclination": "12.67841765216022",
        "ascending_node_longitude": "199.4735592694299",
        "orbital_period": "658.3064041285418",
        "perihelion_distance": ".863793968980778",
        "perihelion_argument": "234.3317735924501",
        "aphelion_distance": "2.0981926877135",
        "perihelion_time": "2459183.744501973371",
        "mean_anomaly": "330.8828281326111",
        "mean_motion": ".5468578123230682",
        "equinox": "J2000",
        "orbit_class": {
            "orbit_class_type": "APO",
            "orbit_class_description": "Near-Earth asteroid orbits which cross the Earth’s orbit similar to that of 1862 Apollo",
            "orbit_class_range": "a (semi-major axis) > 1.0 AU; q (perihelion) < 1.017 AU"
        }
    },
    "is_sentry_object": false
}